COSMOS 1892             
1 18421U 87088A   20262.53114117  .00000622  00000-0  29554-4 0  9991
2 18421  82.5029 181.4252 0016659 101.1709 259.1398 15.17223698798660
SL-14 R/B               
1 18749U 88001B   20262.52788288  .00000059  00000-0  42732-5 0  9993
2 18749  82.5109 270.4127 0018589 356.5045 117.5934 14.83226701745660
COSMOS 1933             
1 18958U 88020A   20262.42083002 -.00000202  00000-0 -16793-4 0  9996
2 18958  82.5307  35.8105 0011340 187.5260 172.5798 15.03760500770222
SL-3 R/B                
1 19046U 88032B   20262.55002548 -.00000073  00000-0 -98795-6 0  9998
2 19046  97.3980 279.4771 0036240 249.2720 110.4621 15.02736440750948
SL-16 R/B               
1 19120U 88039B   20262.50552492 -.00000039  00000-0  45423-5 0  9991
2 19120  71.0145 331.9014 0021413 170.4989 189.6545 14.19207667674854
COSMOS 1953             
1 19210U 88050A   20262.53349847 -.00000165  00000-0 -13364-4 0  9994
2 19210  82.5175 319.4799 0014254 155.8388 204.3511 15.06024576735679
SL-8 R/B                
1 19257U 88053B   20262.28815191 -.00000001  00000-0  84480-5 0  9996
2 19257  74.0497 190.2860 0019863 149.4953 323.4227 14.37480573689340
COSMOS 1975             
1 19573U 88093A   20262.50976178  .00000706  00000-0  47770-4 0  9990
2 19573  82.5167 274.0370 0013390 199.8360 160.2348 15.04923773717506
SL-14 R/B               
1 19574U 88093B   20262.33533412  .00000065  00000-0  49245-5 0  9990
2 19574  82.5298 113.2039 0022268 152.1570  20.6859 14.83337257704635
SL-16 R/B               
1 19650U 88102B   20262.53457279  .00000028  00000-0  38672-4 0  9994
2 19650  71.0016  34.1753 0014142 181.8895 178.2177 14.15795299644057
INTERCOSMOS 24          
1 20261U 89080A   20262.52689394  .00000116  00000-0  33031-4 0  9996
2 20261  82.6064 320.0481 1201698 233.0598 115.4482 12.56131495415680
SL-14 R/B               
1 20262U 89080C   20262.34615880  .00000023  00000-0 -25051-5 0  9998
2 20262  82.5988  14.4260 1237662  65.3590 307.1245 12.48945695410163
DELTA 2 R/B(1)          
1 20303U 89085B   20262.40751443  .00001036  00000-0  34817-4 0  9995
2 20303  35.6344 146.3939 0095507 282.9222  76.0853 15.27590085682280
DELTA 1 R/B             
1 20323U 89089B   20262.34710426  .00000023  00000-0  15283-4 0  9991
2 20323  97.1037  33.3746 0070331 299.3365  60.0818 14.48358332626846
ARIANE 40 R/B           
1 20443U 90005H   20262.46731646  .00000013  00000-0  18866-4 0  9993
2 20443  98.5676 324.0997 0011467  69.2841 290.9574 14.38098833605744
DELTA 2 R/B(1)          
1 20453U 90008B   20262.50135400  .00000383  00000-0  24795-4 0  9996
2 20453  35.6252  67.5785 0280422   1.5320 358.6202 14.85668355625040
COSMOS 2058             
1 20465U 90010A   20262.49598470  .00000141  00000-0  95999-5 0  9997
2 20465  82.4920 183.8169 0013847 245.6376 114.3401 14.98043889642253
SL-14 R/B               
1 20466U 90010B   20262.48736059  .00000073  00000-0  62525-5 0  9997
2 20466  82.5056 339.7120 0021355  35.5776 324.6856 14.81392470632509
SL-14 R/B               
1 20511U 90018B   20262.56609451  .00000058  00000-0  45258-5 0  9997
2 20511  82.5204 286.4282 0017772 167.6178 305.4991 14.80048073626880
HST                     
1 20580U 90037B   20262.51446615  .00000384  00000-0  12338-4 0  9994
2 20580  28.4701  64.1310 0002768  16.7011  25.5369 15.09432130470046
SL-16 R/B               
1 20625U 90046B   20262.48848411 -.00000032  00000-0  79622-5 0  9991
2 20625  71.0003 172.9222 0011939 102.0259 258.2202 14.14661558565777
COSMOS 2084             
1 20663U 90055A   20262.40681904 -.00000048  00000-0  13297-4 0  9999
2 20663  62.7941 217.8258 0031969 303.3297  56.4736 14.92112491637232
SL-6 R/B(2)             
1 20666U 90055D   20262.37672478 -.00000051  00000-0  13416-4 0  9991
2 20666  62.7854 134.1326 0058645 359.4969   0.6055 14.92362789639169
SL-8 R/B                
1 20775U 90078B   20262.43182678  .00000715  00000-0  34170-4 0  9998
2 20775  82.9283 149.9608 0570939 266.6102  86.9655 14.34675297519077
SL-8 R/B                
1 21088U 91006B   20262.39385851  .00000073  00000-0  58786-4 0  9997
2 21088  82.9435 216.1098 0021302 228.8218 245.0658 13.77146118489277
OKEAN-3                 
1 21397U 91039A   20262.54330586  .00000161  00000-0  12964-4 0  9994
2 21397  82.5189  88.2109 0016894 214.1921 145.8213 14.92957044566155
COSMOS 2151             
1 21422U 91042A   20262.53678134  .00000134  00000-0  10658-4 0  9998
2 21422  82.5029 194.3218 0012597 284.3910  75.5911 14.92155333564760
SL-14 R/B               
1 21423U 91042B   20262.50576395  .00000062  00000-0  51973-5 0  9998
2 21423  82.4914 289.9354 0016505 318.3001  41.6953 14.79798537557426
ERS-1                   
1 21574U 91050A   20262.46289925  .00000017  00000-0  20515-4 0  9996
2 21574  98.6061 215.8902 0033387  12.5353 347.6656 14.37757487528488
ARIANE 40 R/B           
1 21610U 91050F   20262.44796836  .00000009  00000-0  16599-4 0  9997
2 21610  98.4580 330.7236 0002929   3.3634   7.0639 14.40913404531094
INTERCOSMOS 25          
1 21819U 91086A   20262.56602706  .00000099  00000-0  12131-4 0  9999
2 21819  82.5830  70.5605 1517151  73.6820 302.5277 12.05129219255504
SL-8 R/B                
1 21876U 92008B   20262.55807719  .00000083  00000-0  70417-4 0  9991
2 21876  82.9265 313.2247 0033690 315.5533 152.6807 13.75658779434677
SL-8 R/B                
1 21938U 92020B   20262.37967076  .00000005  00000-0 -11224-4 0  9993
2 21938  82.9330 197.5734 0030471 112.8882   4.1957 13.75277004426746
COSMOS 2219             
1 22219U 92076A   20262.33754784 -.00000106  00000-0 -31114-4 0  9996
2 22219  71.0569 233.6763 0017653   5.9311 354.2017 14.13639074435942
SL-16 R/B               
1 22220U 92076B   20262.57845663 -.00000196  00000-0 -74226-4 0  9991
2 22220  70.9994  75.5484 0015183 262.3154 162.4698 14.16461032438865
COSMOS 2221             
1 22236U 92080A   20262.56381328  .00000137  00000-0  12249-4 0  9995
2 22236  82.5109  15.6673 0017010  17.9494 342.2320 14.87947119483128
SL-16 R/B               
1 22285U 92093B   20262.39983706  .00000303  00000-0  18069-3 0  9992
2 22285  71.0184 237.5217 0002451 135.4495 224.6825 14.15047854430760
COSMOS 2228             
1 22286U 92094A   20262.43520722  .00000165  00000-0  15129-4 0  9995
2 22286  82.5220 332.1456 0022397 129.8963 230.4228 14.88165005478273
SL-16 R/B               
1 22566U 93016B   20262.50225705  .00000122  00000-0  87491-4 0  9996
2 22566  71.0055  90.4323 0008747 132.0340 228.1528 14.14962724419496
COSMOS 2242             
1 22626U 93024A   20262.55643380  .00000142  00000-0  12697-4 0  9998
2 22626  82.5251   0.1890 0020177 129.3415 230.9595 14.88020821482701
SL-16 R/B               
1 22803U 93059B   20262.45497524  .00000024  00000-0  35971-4 0  9998
2 22803  70.9883 263.2734 0016897   6.4633 353.6705 14.16828517396473
ARIANE 40 R/B           
1 22830U 93061H   20262.40841703 -.00000016  00000-0  11152-4 0  9995
2 22830  98.7563 312.4252 0011747  53.8382 306.3886 14.31455829408124
COSMOS 2278             
1 23087U 94023A   20262.49953399 -.00000250  00000-0 -10700-3 0  9991
2 23087  71.0544  33.1705 0009982 212.0316 148.0201 14.13806079362348
SL-16 R/B               
1 23088U 94023B   20262.52425986  .00000181  00000-0  11899-3 0  9993
2 23088  70.9976 305.7732 0001188  99.0124 261.1133 14.14686693363479
SL-16 R/B               
1 23343U 94074B   20262.39156847  .00000003  00000-0  77297-5 0  9994
2 23343  97.9899 314.5243 0006301 200.5939 170.0398 14.76836211392346
SL-16 R/B               
1 23405U 94077B   20262.36102421 -.00000254  00000-0 -10593-3 0  9996
2 23405  70.9818 235.1126 0004791 295.6621  64.4006 14.15225535333508
ERS-2                   
1 23560U 95021A   20262.44522493  .00000496  00000-0  24711-4 0  9996
2 23560  98.5519  68.7298 0002917 194.8973 165.2175 15.23291344356303
ARIANE 40+ R/B          
1 23561U 95021B   20262.20218484  .00000026  00000-0  23734-4 0  9996
2 23561  98.7163 302.7791 0006532 348.6173  51.4027 14.37982414331908
SL-16 R/B               
1 23705U 95058B   20262.53910046  .00000215  00000-0  13512-3 0  9997
2 23705  71.0221  53.6443 0014541 282.8776  77.0722 14.15137268285145
SL-16 R/B               
1 24298U 96051B   20262.56878749 -.00000141  00000-0 -50084-4 0  9991
2 24298  70.8400  74.2362 0018436 219.7285 140.2486 14.12496739239506
ORBVIEW 2 (SEASTAR)     
1 24883U 97037A   20262.29962336  .00000026  00000-0  25246-4 0  9994
2 24883  98.6192  15.1580 0002491 164.6729 195.4531 14.33569615222279
SL-16 R/B               
1 25400U 98043G   20262.43863807 -.00000020  00000-0  10013-4 0  9998
2 25400  98.6105 196.6674 0010993  66.5755 293.6580 14.25460593154492
SL-16 R/B               
1 25407U 98045B   20262.52942906 -.00000201  00000-0 -77775-4 0  9995
2 25407  71.0113  61.9960 0008244 208.1835 151.8843 14.15830746144254
ISS (ZARYA)             
1 25544U 98067A   20262.67636574  .00000241  00000-0  12514-4 0  9990
2 25544  51.6432 245.8351 0000884 104.2674 236.9442 15.48952759246507
SL-8 R/B                
1 25723U 99022C   20262.23574918  .00017750  00000-0  10899-3 0  9992
2 25723  48.4104 213.4383 0004663  82.2065 277.9418 15.77235863192296
CZ-4B R/B               
1 25732U 99025C   20262.34252608 -.00000021  00000-0  11904-4 0  9999
2 25732  98.9386 291.6919 0036465 306.8385  63.6159 14.17680868105126
OKEAN-O                 
1 25860U 99039A   20262.54655799  .00000029  00000-0  11802-4 0  9990
2 25860  98.2111 283.1493 0000845  76.0570 284.0733 14.76677862139258
SL-16 R/B               
1 25861U 99039B   20262.52789573 -.00000005  00000-0  69108-5 0  9995
2 25861  98.2106 266.5299 0014824 215.0919 258.6953 14.78590707141377
DELTA 2 R/B             
1 25876U 99041E   20262.51512706 -.00000048  00000-0  31049-4 0  9994
2 25876  51.7679 302.9587 0530780 255.4820  98.6682 14.04457147 81700
